[{"OBJECT_NAME":"ONEWEB-0703","OBJECT_ID":"2023-068Q","EPOCH":"2025-11-18T10:15:20.900736","MEAN_MOTION":13.1554829,"ECCENTRICITY":0.0002627,"INCLINATION":87.8961,"RA_OF_ASC_NODE":301.269,"ARG_OF_PERICENTER":105.7325,"MEAN_ANOMALY":254.4095,"EPHEMERIS_TYPE":0,"CLASSIFICATION_TYPE":"U","NORAD_CAT_ID":56724,"ELEMENT_SET_NO":999,"REV_AT_EPOCH":12154,"BSTAR":-7.9175e-5,"MEAN_MOTION_DOT":-1.7e-7,"MEAN_MOTION_DDOT":0},{"OBJECT_NAME":"ONEWEB-0721","OBJECT_ID":"2023-068R","EPOCH":"2025-11-18T12:04:58.258848","MEAN_MOTION":13.22451482,"ECCENTRICITY":0.0001454,"INCLINATION":86.6794,"RA_OF_ASC_NODE":152.7175,"ARG_OF_PERICENTER":86.9692,"MEAN_ANOMALY":273.1607,"EPHEMERIS_TYPE":0,"CLASSIFICATION_TYPE":"U","NORAD_CAT_ID":56725,"ELEMENT_SET_NO":999,"REV_AT_EPOCH":13009,"BSTAR":0.00012966,"MEAN_MOTION_DOT":6.8e-7,"MEAN_MOTION_DDOT":0},{"OBJECT_NAME":"ONEWEB-0015","OBJECT_ID":"2024-188A","EPOCH":"2025-11-18T08:22:24.853728","MEAN_MOTION":13.11416241,"ECCENTRICITY":0.0001239,"INCLINATION":87.8862,"RA_OF_ASC_NODE":63.0863,"ARG_OF_PERICENTER":120.2546,"MEAN_ANOMALY":239.8704,"EPHEMERIS_TYPE":0,"CLASSIFICATION_TYPE":"U","NORAD_CAT_ID":61594,"ELEMENT_SET_NO":999,"REV_AT_EPOCH":5682,"BSTAR":0.001547,"MEAN_MOTION_DOT":5.61e-6,"MEAN_MOTION_DDOT":0},{"OBJECT_NAME":"ONEWEB-0687","OBJECT_ID":"2024-188B","EPOCH":"2025-11-18T06:43:21.542016","MEAN_MOTION":13.17644908,"ECCENTRICITY":0.0001144,"INCLINATION":87.9124,"RA_OF_ASC_NODE":47.8409,"ARG_OF_PERICENTER":96.9254,"MEAN_ANOMALY":263.2007,"EPHEMERIS_TYPE":0,"CLASSIFICATION_TYPE":"U","NORAD_CAT_ID":61595,"ELEMENT_SET_NO":999,"REV_AT_EPOCH":5812,"BSTAR":0.00022553,"MEAN_MOTION_DOT":1.0e-6,"MEAN_MOTION_DDOT":0},{"OBJECT_NAME":"ONEWEB-0688","OBJECT_ID":"2024-188C","EPOCH":"2025-11-18T05:35:16.601856","MEAN_MOTION":13.17648027,"ECCENTRICITY":0.0001087,"INCLINATION":87.9123,"RA_OF_ASC_NODE":47.85,"ARG_OF_PERICENTER":152.953,"MEAN_ANOMALY":207.1659,"EPHEMERIS_TYPE":0,"CLASSIFICATION_TYPE":"U","NORAD_CAT_ID":61596,"ELEMENT_SET_NO":999,"REV_AT_EPOCH":5811,"BSTAR":0.00040242,"MEAN_MOTION_DOT":1.69e-6,"MEAN_MOTION_DDOT":0},{"OBJECT_NAME":"ONEWEB-0689","OBJECT_ID":"2024-188D","EPOCH":"2025-11-18T07:21:20.407680","MEAN_MOTION":13.11414295,"ECCENTRICITY":0.0001445,"INCLINATION":87.8846,"RA_OF_ASC_NODE":63.0324,"ARG_OF_PERICENTER":93.0198,"MEAN_ANOMALY":267.1095,"EPHEMERIS_TYPE":0,"CLASSIFICATION_TYPE":"U","NORAD_CAT_ID":61597,"ELEMENT_SET_NO":999,"REV_AT_EPOCH":5681,"BSTAR":-0.0012297,"MEAN_MOTION_DOT":-4.23e-6,"MEAN_MOTION_DDOT":0},{"OBJECT_NAME":"ONEWEB-0690","OBJECT_ID":"2024-188E","EPOCH":"2025-11-18T05:46:08.637600","MEAN_MOTION":13.11417191,"ECCENTRICITY":0.000231,"INCLINATION":87.8884,"RA_OF_ASC_NODE":63.0518,"ARG_OF_PERICENTER":112.992,"MEAN_ANOMALY":247.1452,"EPHEMERIS_TYPE":0,"CLASSIFICATION_TYPE":"U","NORAD_CAT_ID":61598,"ELEMENT_SET_NO":999,"REV_AT_EPOCH":5698,"BSTAR":-0.0011992,"MEAN_MOTION_DOT":-4.12e-6,"MEAN_MOTION_DDOT":0},{"OBJECT_NAME":"ONEWEB-0691","OBJECT_ID":"2024-188F","EPOCH":"2025-11-18T05:38:48.981696","MEAN_MOTION":13.11417002,"ECCENTRICITY":0.0001399,"INCLINATION":87.8828,"RA_OF_ASC_NODE":62.9638,"ARG_OF_PERICENTER":116.1356,"MEAN_ANOMALY":243.9916,"EPHEMERIS_TYPE":0,"CLASSIFICATION_TYPE":"U","NORAD_CAT_ID":61599,"ELEMENT_SET_NO":999,"REV_AT_EPOCH":5683,"BSTAR":-0.0013383,"MEAN_MOTION_DOT":-4.62e-6,"MEAN_MOTION_DDOT":0},{"OBJECT_NAME":"ONEWEB-0692","OBJECT_ID":"2024-188G","EPOCH":"2025-11-18T07:57:58.866048","MEAN_MOTION":13.11417918,"ECCENTRICITY":0.00021,"INCLINATION":87.8859,"RA_OF_ASC_NODE":63.0836,"ARG_OF_PERICENTER":79.8904,"MEAN_ANOMALY":280.2461,"EPHEMERIS_TYPE":0,"CLASSIFICATION_TYPE":"U","NORAD_CAT_ID":61600,"ELEMENT_SET_NO":999,"REV_AT_EPOCH":5683,"BSTAR":0.0018939,"MEAN_MOTION_DOT":6.84e-6,"MEAN_MOTION_DDOT":0},{"OBJECT_NAME":"ONEWEB-0693","OBJECT_ID":"2024-188H","EPOCH":"2025-11-18T05:52:17.586336","MEAN_MOTION":13.17647121,"ECCENTRICITY":0.000253,"INCLINATION":87.9125,"RA_OF_ASC_NODE":47.866,"ARG_OF_PERICENTER":119.8941,"MEAN_ANOMALY":240.2442,"EPHEMERIS_TYPE":0,"CLASSIFICATION_TYPE":"U","NORAD_CAT_ID":61601,"ELEMENT_SET_NO":999,"REV_AT_EPOCH":5810,"BSTAR":7.8297e-5,"MEAN_MOTION_DOT":4.3e-7,"MEAN_MOTION_DDOT":0},{"OBJECT_NAME":"ONEWEB-0695","OBJECT_ID":"2024-188J","EPOCH":"2025-11-18T05:33:54.984960","MEAN_MOTION":13.11414679,"ECCENTRICITY":0.000164,"INCLINATION":87.8859,"RA_OF_ASC_NODE":63.0917,"ARG_OF_PERICENTER":83.4685,"MEAN_ANOMALY":276.663,"EPHEMERIS_TYPE":0,"CLASSIFICATION_TYPE":"U","NORAD_CAT_ID":61602,"ELEMENT_SET_NO":999,"REV_AT_EPOCH":5681,"BSTAR":-0.0013251,"MEAN_MOTION_DOT":-4.57e-6,"MEAN_MOTION_DDOT":0},{"OBJECT_NAME":"ONEWEB-0697","OBJECT_ID":"2024-188K","EPOCH":"2025-11-18T08:10:12.891936","MEAN_MOTION":13.11418566,"ECCENTRICITY":0.0002151,"INCLINATION":87.8862,"RA_OF_ASC_NODE":63.0608,"ARG_OF_PERICENTER":82.6576,"MEAN_ANOMALY":277.4797,"EPHEMERIS_TYPE":0,"CLASSIFICATION_TYPE":"U","NORAD_CAT_ID":61603,"ELEMENT_SET_NO":999,"REV_AT_EPOCH":5681,"BSTAR":0.00087279,"MEAN_MOTION_DOT":3.22e-6,"MEAN_MOTION_DDOT":0},{"OBJECT_NAME":"ONEWEB-0698","OBJECT_ID":"2024-188L","EPOCH":"2025-11-18T05:48:35.109792","MEAN_MOTION":13.11417183,"ECCENTRICITY":0.0002727,"INCLINATION":87.8866,"RA_OF_ASC_NODE":63.0955,"ARG_OF_PERICENTER":95.2104,"MEAN_ANOMALY":264.9335,"EPHEMERIS_TYPE":0,"CLASSIFICATION_TYPE":"U","NORAD_CAT_ID":61604,"ELEMENT_SET_NO":999,"REV_AT_EPOCH":5682,"BSTAR":-0.001154,"MEAN_MOTION_DOT":-3.96e-6,"MEAN_MOTION_DDOT":0},{"OBJECT_NAME":"ONEWEB-0699","OBJECT_ID":"2024-188M","EPOCH":"2025-11-18T09:25:08.327136","MEAN_MOTION":13.10375573,"ECCENTRICITY":0.0002068,"INCLINATION":87.8812,"RA_OF_ASC_NODE":78.2783,"ARG_OF_PERICENTER":85.3658,"MEAN_ANOMALY":274.7705,"EPHEMERIS_TYPE":0,"CLASSIFICATION_TYPE":"U","NORAD_CAT_ID":61605,"ELEMENT_SET_NO":999,"REV_AT_EPOCH":5570,"BSTAR":0.0020296,"MEAN_MOTION_DOT":7.21e-6,"MEAN_MOTION_DDOT":0},{"OBJECT_NAME":"ONEWEB-0700","OBJECT_ID":"2024-188N","EPOCH":"2025-11-18T09:27:32.582304","MEAN_MOTION":13.10374602,"ECCENTRICITY":0.0001569,"INCLINATION":87.8817,"RA_OF_ASC_NODE":78.1621,"ARG_OF_PERICENTER":74.537,"MEAN_ANOMALY":285.5931,"EPHEMERIS_TYPE":0,"CLASSIFICATION_TYPE":"U","NORAD_CAT_ID":61606,"ELEMENT_SET_NO":999,"REV_AT_EPOCH":5569,"BSTAR":0.0019481,"MEAN_MOTION_DOT":6.93e-6,"MEAN_MOTION_DDOT":0},{"OBJECT_NAME":"ONEWEB-0701","OBJECT_ID":"2024-188P","EPOCH":"2025-11-18T09:51:25.502976","MEAN_MOTION":13.10369923,"ECCENTRICITY":0.0002138,"INCLINATION":87.8805,"RA_OF_ASC_NODE":78.2767,"ARG_OF_PERICENTER":81.769,"MEAN_ANOMALY":278.3679,"EPHEMERIS_TYPE":0,"CLASSIFICATION_TYPE":"U","NORAD_CAT_ID":61607,"ELEMENT_SET_NO":999,"REV_AT_EPOCH":5570,"BSTAR":-0.0005071,"MEAN_MOTION_DOT":-1.64e-6,"MEAN_MOTION_DDOT":0},{"OBJECT_NAME":"ONEWEB-0702","OBJECT_ID":"2024-188Q","EPOCH":"2025-11-18T06:54:31.432320","MEAN_MOTION":13.11414797,"ECCENTRICITY":0.0002029,"INCLINATION":87.8816,"RA_OF_ASC_NODE":62.9814,"ARG_OF_PERICENTER":75.8097,"MEAN_ANOMALY":284.3256,"EPHEMERIS_TYPE":0,"CLASSIFICATION_TYPE":"U","NORAD_CAT_ID":61608,"ELEMENT_SET_NO":999,"REV_AT_EPOCH":5684,"BSTAR":0.00074823,"MEAN_MOTION_DOT":2.78e-6,"MEAN_MOTION_DDOT":0}]
