ONEWEB-0703             
1 56724U 23068Q   25322.42732524 -.00000017  00000+0 -79175-4 0  9998
2 56724  87.8961 301.2690 0002627 105.7325 254.4095 13.15548290121546
ONEWEB-0721             
1 56725U 23068R   25322.50345207  .00000068  00000+0  12966-3 0  9994
2 56725  86.6794 152.7175 0001454  86.9692 273.1607 13.22451482130090
ONEWEB-0015             
1 61594U 24188A   25322.34889877  .00000561  00000+0  15470-2 0  9996
2 61594  87.8862  63.0863 0001239 120.2546 239.8704 13.11416241 56825
ONEWEB-0687             
1 61595U 24188B   25322.28011044  .00000100  00000+0  22553-3 0  9993
2 61595  87.9124  47.8409 0001144  96.9254 263.2007 13.17644908 58125
ONEWEB-0688             
1 61596U 24188C   25322.23283104  .00000169  00000+0  40242-3 0  9997
2 61596  87.9123  47.8500 0001087 152.9530 207.1659 13.17648027 58118
ONEWEB-0689             
1 61597U 24188D   25322.30648620 -.00000423  00000+0 -12297-2 0  9997
2 61597  87.8846  63.0324 0001445  93.0198 267.1095 13.11414295 56814
ONEWEB-0690             
1 61598U 24188E   25322.24037775 -.00000412  00000+0 -11992-2 0  9993
2 61598  87.8884  63.0518 0002310 112.9920 247.1452 13.11417191 56989
ONEWEB-0691             
1 61599U 24188F   25322.23528914 -.00000462  00000+0 -13383-2 0  9994
2 61599  87.8828  62.9638 0001399 116.1356 243.9916 13.11417002 56838
ONEWEB-0692             
1 61600U 24188G   25322.33193132  .00000684  00000+0  18939-2 0  9994
2 61600  87.8859  63.0836 0002100  79.8904 280.2461 13.11417918 56837
ONEWEB-0693             
1 61601U 24188H   25322.24464799  .00000043  00000+0  78297-4 0  9999
2 61601  87.9125  47.8660 0002530 119.8941 240.2442 13.17647121 58107
ONEWEB-0695             
1 61602U 24188J   25322.23188640 -.00000457  00000+0 -13251-2 0  9995
2 61602  87.8859  63.0917 0001640  83.4685 276.6630 13.11414679 56810
ONEWEB-0697             
1 61603U 24188K   25322.34042699  .00000322  00000+0  87279-3 0  9992
2 61603  87.8862  63.0608 0002151  82.6576 277.4797 13.11418566 56812
ONEWEB-0698             
1 61604U 24188L   25322.24207303 -.00000396  00000+0 -11540-2 0  9997
2 61604  87.8866  63.0955 0002727  95.2104 264.9335 13.11417183 56822
ONEWEB-0699             
1 61605U 24188M   25322.39245749  .00000721  00000+0  20296-2 0  9998
2 61605  87.8812  78.2783 0002068  85.3658 274.7705 13.10375573 55704
ONEWEB-0700             
1 61606U 24188N   25322.39412711  .00000693  00000+0  19481-2 0  9996
2 61606  87.8817  78.1621 0001569  74.5370 285.5931 13.10374602 55697
ONEWEB-0701             
1 61607U 24188P   25322.41071184 -.00000164  00000+0 -50710-3 0  9991
2 61607  87.8805  78.2767 0002138  81.7690 278.3679 13.10369923 55706
ONEWEB-0702             
1 61608U 24188Q   25322.28786380  .00000278  00000+0  74823-3 0  9993
2 61608  87.8816  62.9814 0002029  75.8097 284.3256 13.11414797 56841
